NORAD_CAT_ID,OBJECT_NAME,OBJECT_TYPE,EPOCH,MEAN_MOTION,ECCENTRICITY,INCLINATION,RA_OF_ASC_NODE,ARG_OF_PERICENTER,MEAN_ANOMALY,BSTAR,MEAN_MOTION_DOT,MEAN_MOTION_DDOT,TLE_LINE0,TLE_LINE1,TLE_LINE2,SEMIMAJOR_AXIS,PERIOD,APOGEE,PERIGEE,DECAYED
52111.0,STARLINK-3708,PAYLOAD,2022-05-17 12:00:00,15.493333800000002,0.0001874,53.2173,212.6839,37.506,115.1789,-0.014009,-0.00722035,0.0,0 STARLINK-3708,1 52111U 22029Z   22137.50001157 -.00722035  00000-0 -14009-1 0  9995,2 52111  53.2173 212.6839 0001874  37.5060 115.1789 15.49333380 10557,6796.812,92.943,419.951,417.403,0.0
52111.0,STARLINK-3708,PAYLOAD,2022-05-17 14:00:01,15.49205045,0.0001754999999999,53.2177,212.2861,40.4422,217.3495,-0.01404,-0.00720454,0.0,0 STARLINK-3708,1 52111U 22029Z   22137.58335648 -.00720454  00000-0 -14040-1 0  9996,2 52111  53.2177 212.2861 0001755  40.4422 217.3495 15.49205045  1303,6797.187,92.951,420.245,417.859,0.0
52111.0,STARLINK-3708,PAYLOAD,2022-05-17 22:00:01,15.48697118,0.0001413,53.2176,210.6935,47.1458,270.4318,-0.014379,-0.00724357,0.0,0 STARLINK-3708,1 52111U 22029Z   22137.91668981 -.00724357  00000-0 -14379-1 0  9993,2 52111  53.2176 210.6935 0001413  47.1458 270.4318 15.48697118  1309,6798.6730000000025,92.981,421.499,419.578,0.0
52111.0,STARLINK-3708,PAYLOAD,2022-05-18 12:00:00,15.47804061,0.0001789,53.2176,207.9133,34.3189,296.344,-0.014813,-0.00723306,0.0,0 STARLINK-3708,1 52111U 22029Z   22138.50001157 -.00723306  00000-0 -14813-1 0  9991,2 52111  53.2176 207.9133 0001789  34.3189 296.3440 15.47804061 10717,6801.288000000001,93.035,424.37,421.937,0.0
52111.0,STARLINK-3708,PAYLOAD,2022-05-18 14:00:01,15.47674824,0.0001898,53.2177,207.5165,29.9357,45.3102,-0.014817,-0.00720476,0.0,0 STARLINK-3708,1 52111U 22029Z   22138.58334491 -.00720476  00000-0 -14817-1 0  9998,2 52111  53.2177 207.5165 0001898  29.9357  45.3102 15.47674824  1301,6801.667,93.043,424.823,422.241,0.0
52111.0,STARLINK-3708,PAYLOAD,2022-05-18 22:00:00,15.47164976,0.0001676999999999,53.2175,205.9274,38.9663,94.2276,-0.015072,-0.00719938,0.0,0 STARLINK-3708,1 52111U 22029Z   22138.91667824 -.00719938  00000-0 -15072-1 0  9999,2 52111  53.2175 205.9274 0001677  38.9663  94.2276 15.47164976  1304,6803.161,93.073,426.167,423.885,0.0
52111.0,STARLINK-3708,PAYLOAD,2022-05-19 14:00:01,15.46143404,0.0001629999999999,53.2175,202.7577,46.9985,200.3157,-0.01555,-0.00717081,0.0,0 STARLINK-3708,1 52111U 22029Z   22139.58335648 -.00717081  00000-0 -15550-1 0  9997,2 52111  53.2175 202.7577 0001630  46.9985 200.3157 15.46143404  1300,6806.156999999997,93.135,429.132,426.913,0.0
52111.0,STARLINK-3708,PAYLOAD,2022-05-19 22:00:00,15.45636992,0.000161,53.2175,201.1722,39.6165,263.742,-0.0159729999999999,-0.00723308,0.0,0 STARLINK-3708,1 52111U 22029Z   22139.91667824 -.00723308  00000-0 -15973-1 0  9996,2 52111  53.2175 201.1722 0001610  39.6165 263.7420 15.45636992 10924,6807.644,93.165,430.605,428.413,0.0
52111.0,STARLINK-3708,PAYLOAD,2022-05-20 14:00:01,15.44613409,0.0001578,53.2174,198.0101,38.6044,15.1337,-0.016399,-0.00717386,0.0,0 STARLINK-3708,1 52111U 22029Z   22140.58334491 -.00717386  00000-0 -16399-1 0  9994,2 52111  53.2174 198.0101 0001578  38.6044  15.1337 15.44613409  1301,6810.651,93.227,433.591,431.442,0.0
52111.0,STARLINK-3708,PAYLOAD,2022-05-20 22:00:00,15.44104108,0.0001786999999999,53.2174,196.4281,32.9938,75.0157,-0.016699,-0.00717893,0.0,0 STARLINK-3708,1 52111U 22029Z   22140.91667824 -.00717893  00000-0 -16699-1 0  9996,2 52111  53.2174 196.4281 0001787  32.9938  75.0157 15.44104108  1309,6812.149,93.258,435.231,432.796,0.0
52111.0,STARLINK-3708,PAYLOAD,2022-05-21 06:00:00,15.43594718,0.0002167,53.2175,194.8493,29.2909,132.3761,-0.0170139999999999,-0.00718841,0.0,0 STARLINK-3708,1 52111U 22029Z   22141.25001157 -.00718841  00000-0 -17014-1 0  9991,2 52111  53.2175 194.8493 0002167  29.2909 132.3761 15.43594718 11136,6813.647,93.289,436.989,434.036,0.0
52111.0,STARLINK-3708,PAYLOAD,2022-05-21 14:00:01,15.43081187,0.000176,53.2174,193.2731,41.4342,173.3422,-0.017153,-0.0071261,0.0,0 STARLINK-3708,1 52111U 22029Z   22141.58335648 -.00712610  00000-0 -17153-1 0  9994,2 52111  53.2174 193.2731 0001760  41.4342 173.3422 15.43081187  1306,6815.159000000002,93.32,438.223,435.824,0.0
52111.0,STARLINK-3708,PAYLOAD,2022-05-21 22:00:00,15.42575049,0.0001657,53.2176,191.6947,41.7703,225.3738,-0.017618,-0.00718977,0.0,0 STARLINK-3708,1 52111U 22029Z   22141.91667824 -.00718977  00000-0 -17618-1 0  9993,2 52111  53.2176 191.6947 0001657  41.7703 225.3738 15.42575049  1300,6816.65,93.35,439.644,437.385,0.0
52111.0,STARLINK-3708,PAYLOAD,2022-05-22 06:00:00,15.42066065,0.0001614,53.2177,190.1198,40.4301,278.5327,-0.017967,-0.00720608,0.0,0 STARLINK-3708,1 52111U 22029Z   22142.25001157 -.00720608  00000-0 -17967-1 0  9993,2 52111  53.2177 190.1198 0001614  40.4301 278.5327 15.42066065 11292,6818.15,93.381,441.115,438.914,0.0
52111.0,STARLINK-3708,PAYLOAD,2022-05-22 14:00:01,15.41553748,0.0001464,53.2175,188.5472,43.8915,326.2779,-0.018169,-0.00716573,0.0,0 STARLINK-3708,1 52111U 22029Z   22142.58334491 -.00716573  00000-0 -18169-1 0  9990,2 52111  53.2175 188.5472 0001464  43.8915 326.2779 15.41553748  1308,6819.66,93.412,442.523,440.527,0.0
52111.0,STARLINK-3708,PAYLOAD,2022-05-22 22:00:01,15.410441199999998,0.0001636999999999,53.2176,186.9724,35.0285,25.8,-0.018509,-0.00717581,0.0,0 STARLINK-3708,1 52111U 22029Z   22142.91668981 -.00717581  00000-0 -18509-1 0  9999,2 52111  53.2176 186.9724 0001637  35.0285  25.8000 15.41044120  1304,6821.1640000000025,93.443,444.145,441.912,0.0
52111.0,STARLINK-3708,PAYLOAD,2022-05-23 04:00:00,15.40663301,0.0001719,53.2177,185.7937,34.0366,334.2701,-0.0188,-0.00719515,0.0,0 STARLINK-3708,1 52111U 22029Z   22143.16667824 -.00719515  00000-0 -18800-1 0  9995,2 52111  53.2177 185.7937 0001719  34.0366 334.2701 15.40663301 11435,6822.2869999999975,93.466,445.325,442.98,0.0
52111.0,STARLINK-3708,PAYLOAD,2022-05-23 14:00:01,15.40021405,0.000168,53.2173,183.8321,42.8946,117.2187,-0.019,-0.00712371,0.0,0 STARLINK-3708,1 52111U 22029Z   22143.58334491 -.00712371  00000-0 -19000-1 0  9998,2 52111  53.2173 183.8321 0001680  42.8946 117.2187 15.40021405  1300,6824.183000000001,93.505,447.195,444.902,0.0
52111.0,STARLINK-3708,PAYLOAD,2022-05-23 22:00:01,15.39513643,0.0001799,53.2174,182.2608,38.611,170.3223,-0.019422,-0.00715791,0.0,0 STARLINK-3708,1 52111U 22029Z   22143.91668981 -.00715791  00000-0 -19422-1 0  9996,2 52111  53.2174 182.2608 0001799  38.6110 170.3223 15.39513643  1308,6825.684,93.536,448.776,446.321,0.0
52111.0,STARLINK-3708,PAYLOAD,2022-05-24 04:00:00,15.39132048,0.000191,53.2177,181.0852,36.1114,118.9217,-0.019715,-0.00717378,0.0,0 STARLINK-3708,1 52111U 22029Z   22144.16667824 -.00717378  00000-0 -19715-1 0  9997,2 52111  53.2177 181.0852 0001910  36.1114 118.9217 15.39132048 11589,6826.812,93.559,449.981,447.37300000000016,0.0
52111.0,STARLINK-3708,PAYLOAD,2022-05-24 11:08:05,15.39868553,0.0001661,53.2134,179.7008,42.1835,317.9299,-0.0050711,-0.00199649,0.0,0 STARLINK-3708,1 52111U 22029Z   22144.46394701 -.00199649  00000-0 -50711-2 0  9998,2 52111  53.2134 179.7008 0001661  42.1835 317.9299 15.39868553 11633,6824.635,93.514,447.633,445.366,0.0
52111.0,STARLINK-3708,PAYLOAD,2022-05-24 22:00:00,15.37983383,0.0001584,53.2174,177.5606,37.2613,314.1977,-0.02042,-0.00715596,0.0,0 STARLINK-3708,1 52111U 22029Z   22144.91667824 -.00715596  00000-0 -20420-1 0  9995,2 52111  53.2174 177.5606 0001584  37.2613 314.1977 15.37983383  1302,6830.21,93.629,453.157,450.99300000000005,0.0
52111.0,STARLINK-3708,PAYLOAD,2022-05-25 06:00:00,15.37476253,0.0001625,53.2176,175.9972,37.9539,359.8077,-0.020907,-0.00720247,0.0,0 STARLINK-3708,1 52111U 22029Z   22145.25001157 -.00720247  00000-0 -20907-1 0  9993,2 52111  53.2176 175.9972 0001625  37.9539 359.8077 15.37476253 11752,6831.712,93.66,454.687,452.467,0.0
52111.0,STARLINK-3708,PAYLOAD,2022-05-25 14:00:01,15.36964254,0.000155,53.2171,174.4349,42.238,41.2151,-0.021127,-0.0071611,0.0,0 STARLINK-3708,1 52111U 22029Z   22145.58334491 -.00716110  00000-0 -21127-1 0  9998,2 52111  53.2171 174.4349 0001550  42.2380  41.2151 15.36964254  1306,6833.229,93.691,456.153,454.035,0.0
52111.0,STARLINK-3708,PAYLOAD,2022-05-25 22:00:00,15.3645391,0.0001805,53.2173,172.8711,35.1312,93.402,-0.021481,-0.00716179,0.0,0 STARLINK-3708,1 52111U 22029Z   22145.91667824 -.00716179  00000-0 -21481-1 0  9992,2 52111  53.2173 172.8711 0001805  35.1312  93.4020 15.36453910  1308,6834.7419999999975,93.722,457.841,455.374,0.0
52111.0,STARLINK-3708,PAYLOAD,2022-05-26 05:15:39,15.37291803,0.0001978,53.2135,171.4675,35.2238,324.8897,-0.0055272,-0.00199993,0.0,0 STARLINK-3708,1 52111U 22029Z   22146.21920991 -.00199993  00000-0 -55272-2 0  9998,2 52111  53.2135 171.4675 0001978  35.2238 324.8897 15.37291803 11901,6832.259,93.671,455.475,452.772,0.0
52111.0,STARLINK-3708,PAYLOAD,2022-05-26 12:00:00,15.35558973,0.0001613,53.2174,170.1426,44.2755,71.6707,-0.02198,-0.00712214,0.0,0 STARLINK-3708,1 52111U 22029Z   22146.50001157 -.00712214  00000-0 -21980-1 0  9999,2 52111  53.2174 170.1426 0001613  44.2755  71.6707 15.35558973 11947,6837.398,93.777,460.366,458.16,0.0
52111.0,STARLINK-3708,PAYLOAD,2022-05-26 13:04:14,15.36778363,0.0002035,53.2137,169.9443,36.3488,323.7654,-0.0057072,-0.00203012,0.0,0 STARLINK-3708,1 52111U 22029Z   22146.54461784 -.00203012  00000-0 -57072-2 0  9992,2 52111  53.2137 169.9443 0002035  36.3488 323.7654 15.36778363 11956,6833.78,93.703,457.036,454.255,0.0
52111.0,STARLINK-3708,PAYLOAD,2022-05-26 22:00:00,15.34923674,0.0001662,53.2173,168.1922,43.4039,216.6889,-0.022534,-0.00715169,0.0,0 STARLINK-3708,1 52111U 22029Z   22146.91667824 -.00715169  00000-0 -22534-1 0  9991,2 52111  53.2173 168.1922 0001662  43.4039 216.6889 15.34923674  1308,6839.284000000002,93.816,462.286,460.013,0.0
